[{"OBJECT_NAME":"STARLINK-3460","OBJECT_ID":"2022-016AT","EPOCH":"2025-12-15T23:11:09.424320","MEAN_MOTION":15.08833645,"ECCENTRICITY":0.00015598,"INCLINATION":53.2203,"RA_OF_ASC_NODE":324.9703,"ARG_OF_PERICENTER":80.7698,"MEAN_ANOMALY":279.3471,"EPHEMERIS_TYPE":0,"CLASSIFICATION_TYPE":"U","NORAD_CAT_ID":51755,"ELEMENT_SET_NO":999,"REV_AT_EPOCH":21106,"BSTAR":7.9151957e-5,"MEAN_MOTION_DOT":9.72e-6,"MEAN_MOTION_DDOT":0},{"OBJECT_NAME":"STARLINK-3513","OBJECT_ID":"2022-016AU","EPOCH":"2025-12-15T22:28:45.315840","MEAN_MOTION":15.0883893,"ECCENTRICITY":8.374e-5,"INCLINATION":53.2192,"RA_OF_ASC_NODE":325.1035,"ARG_OF_PERICENTER":105.526,"MEAN_ANOMALY":254.5825,"EPHEMERIS_TYPE":0,"CLASSIFICATION_TYPE":"U","NORAD_CAT_ID":51756,"ELEMENT_SET_NO":999,"REV_AT_EPOCH":21106,"BSTAR":7.8499433e-5,"MEAN_MOTION_DOT":9.62e-6,"MEAN_MOTION_DDOT":0},{"OBJECT_NAME":"STARLINK-3459","OBJECT_ID":"2022-016AV","EPOCH":"2025-12-15T22:24:50.458176","MEAN_MOTION":15.08844963,"ECCENTRICITY":0.00017815,"INCLINATION":53.2179,"RA_OF_ASC_NODE":325.1266,"ARG_OF_PERICENTER":97.0865,"MEAN_ANOMALY":263.033,"EPHEMERIS_TYPE":0,"CLASSIFICATION_TYPE":"U","NORAD_CAT_ID":51757,"ELEMENT_SET_NO":999,"REV_AT_EPOCH":21106,"BSTAR":0.0001454664,"MEAN_MOTION_DOT":2.028e-5,"MEAN_MOTION_DDOT":0},{"OBJECT_NAME":"STARLINK-3458","OBJECT_ID":"2022-016AW","EPOCH":"2025-12-15T22:12:51.577344","MEAN_MOTION":15.08834725,"ECCENTRICITY":0.00014049,"INCLINATION":53.2191,"RA_OF_ASC_NODE":325.1037,"ARG_OF_PERICENTER":88.8647,"MEAN_ANOMALY":271.2507,"EPHEMERIS_TYPE":0,"CLASSIFICATION_TYPE":"U","NORAD_CAT_ID":51758,"ELEMENT_SET_NO":999,"REV_AT_EPOCH":21220,"BSTAR":9.6634296e-5,"MEAN_MOTION_DOT":1.25e-5,"MEAN_MOTION_DDOT":0},{"OBJECT_NAME":"STARLINK-3456","OBJECT_ID":"2022-016AX","EPOCH":"2025-12-15T22:18:10.354464","MEAN_MOTION":15.08842034,"ECCENTRICITY":0.00015733,"INCLINATION":53.2195,"RA_OF_ASC_NODE":325.1367,"ARG_OF_PERICENTER":99.6472,"MEAN_ANOMALY":260.4698,"EPHEMERIS_TYPE":0,"CLASSIFICATION_TYPE":"U","NORAD_CAT_ID":51759,"ELEMENT_SET_NO":999,"REV_AT_EPOCH":21106,"BSTAR":-2.6729527e-5,"MEAN_MOTION_DOT":-7.13e-6,"MEAN_MOTION_DDOT":0},{"OBJECT_NAME":"STARLINK-3622","OBJECT_ID":"2022-017A","EPOCH":"2025-12-15T18:15:43.300512","MEAN_MOTION":15.08842245,"ECCENTRICITY":0.00014732,"INCLINATION":53.2187,"RA_OF_ASC_NODE":355.8901,"ARG_OF_PERICENTER":92.8003,"MEAN_ANOMALY":267.3157,"EPHEMERIS_TYPE":0,"CLASSIFICATION_TYPE":"U","NORAD_CAT_ID":51768,"ELEMENT_SET_NO":999,"REV_AT_EPOCH":21137,"BSTAR":2.794614e-5,"MEAN_MOTION_DOT":1.57e-6,"MEAN_MOTION_DDOT":0},{"OBJECT_NAME":"STARLINK-3621","OBJECT_ID":"2022-017B","EPOCH":"2025-12-15T18:05:07.414656","MEAN_MOTION":15.08849615,"ECCENTRICITY":0.00015701,"INCLINATION":53.2184,"RA_OF_ASC_NODE":355.9228,"ARG_OF_PERICENTER":98.8268,"MEAN_ANOMALY":261.2902,"EPHEMERIS_TYPE":0,"CLASSIFICATION_TYPE":"U","NORAD_CAT_ID":51769,"ELEMENT_SET_NO":999,"REV_AT_EPOCH":20993,"BSTAR":0.00011846345,"MEAN_MOTION_DOT":1.598e-5,"MEAN_MOTION_DDOT":0},{"OBJECT_NAME":"STARLINK-3612","OBJECT_ID":"2022-017C","EPOCH":"2025-12-15T18:10:25.093632","MEAN_MOTION":15.08850495,"ECCENTRICITY":0.00015376,"INCLINATION":53.2189,"RA_OF_ASC_NODE":355.9081,"ARG_OF_PERICENTER":80.9486,"MEAN_ANOMALY":279.168,"EPHEMERIS_TYPE":0,"CLASSIFICATION_TYPE":"U","NORAD_CAT_ID":51770,"ELEMENT_SET_NO":999,"REV_AT_EPOCH":20994,"BSTAR":8.7943681e-5,"MEAN_MOTION_DOT":1.112e-5,"MEAN_MOTION_DDOT":0},{"OBJECT_NAME":"STARLINK-3614","OBJECT_ID":"2022-017D","EPOCH":"2025-12-15T17:59:49.206912","MEAN_MOTION":15.08840062,"ECCENTRICITY":0.00011609,"INCLINATION":53.2192,"RA_OF_ASC_NODE":355.9314,"ARG_OF_PERICENTER":93.057,"MEAN_ANOMALY":267.0555,"EPHEMERIS_TYPE":0,"CLASSIFICATION_TYPE":"U","NORAD_CAT_ID":51771,"ELEMENT_SET_NO":999,"REV_AT_EPOCH":20993,"BSTAR":9.6476197e-5,"MEAN_MOTION_DOT":1.248e-5,"MEAN_MOTION_DDOT":0},{"OBJECT_NAME":"STARLINK-3623","OBJECT_ID":"2022-017E","EPOCH":"2025-12-15T09:52:18.471360","MEAN_MOTION":15.08834674,"ECCENTRICITY":0.00014072,"INCLINATION":53.2187,"RA_OF_ASC_NODE":357.4615,"ARG_OF_PERICENTER":88.4473,"MEAN_ANOMALY":271.668,"EPHEMERIS_TYPE":0,"CLASSIFICATION_TYPE":"U","NORAD_CAT_ID":51772,"ELEMENT_SET_NO":999,"REV_AT_EPOCH":20987,"BSTAR":2.9324183e-5,"MEAN_MOTION_DOT":1.79e-6,"MEAN_MOTION_DDOT":0},{"OBJECT_NAME":"STARLINK-3624","OBJECT_ID":"2022-017F","EPOCH":"2025-12-15T17:55:54.306912","MEAN_MOTION":15.08835302,"ECCENTRICITY":0.0001356,"INCLINATION":53.2182,"RA_OF_ASC_NODE":355.925,"ARG_OF_PERICENTER":88.9907,"MEAN_ANOMALY":271.124,"EPHEMERIS_TYPE":0,"CLASSIFICATION_TYPE":"U","NORAD_CAT_ID":51773,"ELEMENT_SET_NO":999,"REV_AT_EPOCH":20993,"BSTAR":9.392605e-6,"MEAN_MOTION_DOT":-1.38e-6,"MEAN_MOTION_DDOT":0},{"OBJECT_NAME":"STARLINK-3629","OBJECT_ID":"2022-017G","EPOCH":"2025-12-15T09:41:42.314208","MEAN_MOTION":15.08829423,"ECCENTRICITY":0.00011669,"INCLINATION":53.2175,"RA_OF_ASC_NODE":357.4953,"ARG_OF_PERICENTER":81.9046,"MEAN_ANOMALY":278.2079,"EPHEMERIS_TYPE":0,"CLASSIFICATION_TYPE":"U","NORAD_CAT_ID":51774,"ELEMENT_SET_NO":999,"REV_AT_EPOCH":20984,"BSTAR":-0.00015530313,"MEAN_MOTION_DOT":-2.758e-5,"MEAN_MOTION_DDOT":0},{"OBJECT_NAME":"STARLINK-3620","OBJECT_ID":"2022-017H","EPOCH":"2025-12-15T17:54:32.740128","MEAN_MOTION":15.08841029,"ECCENTRICITY":0.00013706,"INCLINATION":53.2197,"RA_OF_ASC_NODE":355.9583,"ARG_OF_PERICENTER":97.6622,"MEAN_ANOMALY":262.4525,"EPHEMERIS_TYPE":0,"CLASSIFICATION_TYPE":"U","NORAD_CAT_ID":51775,"ELEMENT_SET_NO":999,"REV_AT_EPOCH":20993,"BSTAR":-4.1170186e-5,"MEAN_MOTION_DOT":-9.43e-6,"MEAN_MOTION_DDOT":0},{"OBJECT_NAME":"STARLINK-3608","OBJECT_ID":"2022-017J","EPOCH":"2025-12-15T08:01:01.279776","MEAN_MOTION":15.08835604,"ECCENTRICITY":0.0001501,"INCLINATION":53.2211,"RA_OF_ASC_NODE":357.8099,"ARG_OF_PERICENTER":93.2778,"MEAN_ANOMALY":266.8386,"EPHEMERIS_TYPE":0,"CLASSIFICATION_TYPE":"U","NORAD_CAT_ID":51776,"ELEMENT_SET_NO":999,"REV_AT_EPOCH":20983,"BSTAR":2.3602202e-5,"MEAN_MOTION_DOT":8.8e-7,"MEAN_MOTION_DDOT":0},{"OBJECT_NAME":"STARLINK-3625","OBJECT_ID":"2022-017K","EPOCH":"2025-12-15T09:43:04.574784","MEAN_MOTION":15.08835292,"ECCENTRICITY":0.00013734,"INCLINATION":53.2194,"RA_OF_ASC_NODE":357.4629,"ARG_OF_PERICENTER":97.9756,"MEAN_ANOMALY":262.1393,"EPHEMERIS_TYPE":0,"CLASSIFICATION_TYPE":"U","NORAD_CAT_ID":51777,"ELEMENT_SET_NO":999,"REV_AT_EPOCH":20987,"BSTAR":0.00010813443,"MEAN_MOTION_DOT":1.433e-5,"MEAN_MOTION_DDOT":0},{"OBJECT_NAME":"STARLINK-3615","OBJECT_ID":"2022-017L","EPOCH":"2025-12-15T06:37:31.679040","MEAN_MOTION":15.08850842,"ECCENTRICITY":0.00014699,"INCLINATION":53.2189,"RA_OF_ASC_NODE":347.9418,"ARG_OF_PERICENTER":88.6074,"MEAN_ANOMALY":271.5087,"EPHEMERIS_TYPE":0,"CLASSIFICATION_TYPE":"U","NORAD_CAT_ID":51778,"ELEMENT_SET_NO":999,"REV_AT_EPOCH":20981,"BSTAR":0.00010462687,"MEAN_MOTION_DOT":1.378e-5,"MEAN_MOTION_DDOT":0}]
