STARLINK-3460           
1 51755U 22016AT  25349.96608130  .00000972  00000+0  79152-4 0  9995
2 51755  53.2203 324.9703 0001559  80.7698 279.3471 15.08833645211062
STARLINK-3513           
1 51756U 22016AU  25349.93663560  .00000962  00000+0  78499-4 0  9993
2 51756  53.2192 325.1035 0000837 105.5260 254.5825 15.08838930211060
STARLINK-3459           
1 51757U 22016AV  25349.93391734  .00002028  00000+0  14547-3 0  9993
2 51757  53.2179 325.1266 0001781  97.0865 263.0330 15.08844963211066
STARLINK-3458           
1 51758U 22016AW  25349.92559696  .00001250  00000+0  96634-4 0  9990
2 51758  53.2191 325.1037 0001404  88.8647 271.2507 15.08834725212204
STARLINK-3456           
1 51759U 22016AX  25349.92928651 -.00000713  00000+0 -26730-4 0  9997
2 51759  53.2195 325.1367 0001573  99.6472 260.4698 15.08842034211064
STARLINK-3622           
1 51768U 22017A   25349.76091783  .00000157  00000+0  27946-4 0  9997
2 51768  53.2187 355.8901 0001473  92.8003 267.3157 15.08842245211377
STARLINK-3621           
1 51769U 22017B   25349.75355804  .00001598  00000+0  11846-3 0  9995
2 51769  53.2184 355.9228 0001570  98.8268 261.2902 15.08849615209933
STARLINK-3612           
1 51770U 22017C   25349.75723488  .00001112  00000+0  87944-4 0  9999
2 51770  53.2189 355.9081 0001537  80.9486 279.1680 15.08850495209944
STARLINK-3614           
1 51771U 22017D   25349.74987508  .00001248  00000+0  96476-4 0  9994
2 51771  53.2192 355.9314 0001160  93.0570 267.0555 15.08840062209934
STARLINK-3623           
1 51772U 22017E   25349.41132490  .00000179  00000+0  29324-4 0  9991
2 51772  53.2187 357.4615 0001407  88.4473 271.6680 15.08834674209879
STARLINK-3624           
1 51773U 22017F   25349.74715633 -.00000138  00000+0  93926-5 0  9990
2 51773  53.2182 355.9250 0001356  88.9907 271.1240 15.08835302209936
STARLINK-3629           
1 51774U 22017G   25349.40396197 -.00002758  00000+0 -15530-3 0  9998
2 51774  53.2175 357.4953 0001166  81.9046 278.2079 15.08829423209847
STARLINK-3620           
1 51775U 22017H   25349.74621227 -.00000943  00000+0 -41170-4 0  9995
2 51775  53.2197 355.9583 0001370  97.6622 262.4525 15.08841029209932
STARLINK-3608           
1 51776U 22017J   25349.33404259  .00000088  00000+0  23602-4 0  9993
2 51776  53.2211 357.8099 0001501  93.2778 266.8386 15.08835604209837
STARLINK-3625           
1 51777U 22017K   25349.40491406  .00001433  00000+0  10813-3 0  9996
2 51777  53.2194 357.4629 0001373  97.9756 262.1393 15.08835292209871
STARLINK-3615           
1 51778U 22017L   25349.27606110  .00001378  00000+0  10463-3 0  9991
2 51778  53.2189 347.9418 0001469  88.6074 271.5087 15.08850842209818
